STARLINK-32365          
1 61625U 24191E   26068.26212938 -.00000967  00000+0 -25662-4 0  9990
2 61625  42.9950 156.6897 0000305 104.6492 255.4394 15.27574060 77471
FLOCK 4G-5              
1 62663U 25009BG  26068.45638436  .00011278  00000+0  40688-3 0  9997
2 62663  97.4058 151.2478 0002094 314.5072  45.5996 15.28679529 63699
